BEIDOU-3 M5             
1 43581U 18062A   25321.54662940  .00000072  00000+0  00000+0 0  9994
2 43581  54.0888 189.5008 0002395 341.0049  19.0861  1.86228890 49694
BEIDOU-3 M6             
1 43582U 18062B   25321.94679925  .00000075  00000+0  00000+0 0  9993
2 43582  54.0886 189.4764 0007575  42.7486 317.4119  1.86229951 49708
BEIDOU-3 M12            
1 43602U 18067A   25321.88435322  .00000077  00000+0  00000+0 0  9997
2 43602  54.1830 188.2070 0009026  39.0032 321.1635  1.86227747 49185
BEIDOU-3 M11            
1 43603U 18067B   25321.48183406  .00000074  00000+0  00000+0 0  9994
2 43603  54.1803 188.1847 0005481  33.5829 326.5519  1.86227267 49201
BEIDOU-3 M13            
1 43622U 18072A   25321.43846366 -.00000065  00000+0  00000+0 0  9998
2 43622  56.4377  69.6580 0004987 300.1570  59.7756  1.86230957 48719
BEIDOU-3 M14            
1 43623U 18072B   25321.30393086 -.00000065  00000+0  00000+0 0  9991
2 43623  56.4393  69.6564 0002672 346.1500  13.8247  1.86230970 48702
BEIDOU-3 M16            
1 43647U 18078A   25321.99908512 -.00000083  00000+0  00000+0 0  9994
2 43647  54.2845 307.3860 0006655  17.5457 342.4699  1.86232407 48228
BEIDOU-3 M15            
1 43648U 18078B   25322.12828618 -.00000083  00000+0  00000+0 0  9999
2 43648  54.2802 307.3825 0003283  15.7604 344.2421  1.86232306 48244
BEIDOU-3 G1             
1 43683U 18085A   25322.19113597 -.00000258  00000+0  00000+0 0  9990
2 43683   2.5444 103.7485 0001986  49.2528 113.4145  1.00270252 25945
BEIDOU-3 M17            
1 43706U 18093A   25321.47837796  .00000071  00000+0  00000+0 0  9991
2 43706  54.1724 189.4797 0006755 305.2379 232.9952  1.86228495 47594
BEIDOU-3 M18            
1 43707U 18093B   25321.07386476  .00000067  00000+0  00000+0 0  9997
2 43707  54.1732 189.4853 0006593 347.5069  12.5747  1.86226769 47587
BEIDOU-3 IGSO-1         
1 44204U 19023A   25320.74817708 -.00000236  00000+0  00000+0 0  9993
2 44204  58.3970  39.8456 0026899 221.1206 180.0641  1.00252858  5085
BEIDOU-2 G8             
1 44231U 19027A   25321.97792479 -.00000230  00000+0  00000+0 0  9994
2 44231   1.5976  74.6388 0007976 256.6396 222.5974  1.00270064 23967
