[
    {
        "OBJECT_NAME": "BEIDOU-3 M5 (C23)",
        "OBJECT_ID": "2018-062A",
        "EPOCH": "2025-11-17T13:07:08.780160",
        "MEAN_MOTION": 1.8622889,
        "ECCENTRICITY": 0.0002395,
        "INCLINATION": 54.0888,
        "RA_OF_ASC_NODE": 189.5008,
        "ARG_OF_PERICENTER": 341.0049,
        "MEAN_ANOMALY": 19.0861,
        "EPHEMERIS_TYPE": 0,
        "CLASSIFICATION_TYPE": "U",
        "NORAD_CAT_ID": 43581,
        "ELEMENT_SET_NO": 999,
        "REV_AT_EPOCH": 4969,
        "BSTAR": 0,
        "MEAN_MOTION_DOT": 7.2e-7,
        "MEAN_MOTION_DDOT": 0
    },
    {
        "OBJECT_NAME": "BEIDOU-3 M6 (C24)",
        "OBJECT_ID": "2018-062B",
        "EPOCH": "2025-11-17T22:43:23.455200",
        "MEAN_MOTION": 1.86229951,
        "ECCENTRICITY": 0.0007575,
        "INCLINATION": 54.0886,
        "RA_OF_ASC_NODE": 189.4764,
        "ARG_OF_PERICENTER": 42.7486,
        "MEAN_ANOMALY": 317.4119,
        "EPHEMERIS_TYPE": 0,
        "CLASSIFICATION_TYPE": "U",
        "NORAD_CAT_ID": 43582,
        "ELEMENT_SET_NO": 999,
        "REV_AT_EPOCH": 4970,
        "BSTAR": 0,
        "MEAN_MOTION_DOT": 7.5e-7,
        "MEAN_MOTION_DDOT": 0
    },
    {
        "OBJECT_NAME": "BEIDOU-3 M12 (C26)",
        "OBJECT_ID": "2018-067A",
        "EPOCH": "2025-11-17T21:13:28.118208",
        "MEAN_MOTION": 1.86227747,
        "ECCENTRICITY": 0.0009026,
        "INCLINATION": 54.183,
        "RA_OF_ASC_NODE": 188.207,
        "ARG_OF_PERICENTER": 39.0032,
        "MEAN_ANOMALY": 321.1635,
        "EPHEMERIS_TYPE": 0,
        "CLASSIFICATION_TYPE": "U",
        "NORAD_CAT_ID": 43602,
        "ELEMENT_SET_NO": 999,
        "REV_AT_EPOCH": 4918,
        "BSTAR": 0,
        "MEAN_MOTION_DOT": 7.7e-7,
        "MEAN_MOTION_DDOT": 0
    },
    {
        "OBJECT_NAME": "BEIDOU-3 M11 (C25)",
        "OBJECT_ID": "2018-067B",
        "EPOCH": "2025-11-17T11:33:50.462784",
        "MEAN_MOTION": 1.86227267,
        "ECCENTRICITY": 0.0005481,
        "INCLINATION": 54.1803,
        "RA_OF_ASC_NODE": 188.1847,
        "ARG_OF_PERICENTER": 33.5829,
        "MEAN_ANOMALY": 326.5519,
        "EPHEMERIS_TYPE": 0,
        "CLASSIFICATION_TYPE": "U",
        "NORAD_CAT_ID": 43603,
        "ELEMENT_SET_NO": 999,
        "REV_AT_EPOCH": 4920,
        "BSTAR": 0,
        "MEAN_MOTION_DOT": 7.4e-7,
        "MEAN_MOTION_DDOT": 0
    },
    {
        "OBJECT_NAME": "BEIDOU-3 M13 (C32)",
        "OBJECT_ID": "2018-072A",
        "EPOCH": "2025-11-17T10:31:23.260224",
        "MEAN_MOTION": 1.86230957,
        "ECCENTRICITY": 0.0004987,
        "INCLINATION": 56.4377,
        "RA_OF_ASC_NODE": 69.658,
        "ARG_OF_PERICENTER": 300.157,
        "MEAN_ANOMALY": 59.7756,
        "EPHEMERIS_TYPE": 0,
        "CLASSIFICATION_TYPE": "U",
        "NORAD_CAT_ID": 43622,
        "ELEMENT_SET_NO": 999,
        "REV_AT_EPOCH": 4871,
        "BSTAR": 0,
        "MEAN_MOTION_DOT": -6.5e-7,
        "MEAN_MOTION_DDOT": 0
    },
    {
        "OBJECT_NAME": "BEIDOU-3 M14 (C33)",
        "OBJECT_ID": "2018-072B",
        "EPOCH": "2025-11-17T07:17:39.626304",
        "MEAN_MOTION": 1.8623097,
        "ECCENTRICITY": 0.0002672,
        "INCLINATION": 56.4393,
        "RA_OF_ASC_NODE": 69.6564,
        "ARG_OF_PERICENTER": 346.15,
        "MEAN_ANOMALY": 13.8247,
        "EPHEMERIS_TYPE": 0,
        "CLASSIFICATION_TYPE": "U",
        "NORAD_CAT_ID": 43623,
        "ELEMENT_SET_NO": 999,
        "REV_AT_EPOCH": 4870,
        "BSTAR": 0,
        "MEAN_MOTION_DOT": -6.5e-7,
        "MEAN_MOTION_DDOT": 0
    },
    {
        "OBJECT_NAME": "BEIDOU-3 M16 (C35)",
        "OBJECT_ID": "2018-078A",
        "EPOCH": "2025-11-17T23:58:40.954368",
        "MEAN_MOTION": 1.86232407,
        "ECCENTRICITY": 0.0006655,
        "INCLINATION": 54.2845,
        "RA_OF_ASC_NODE": 307.386,
        "ARG_OF_PERICENTER": 17.5457,
        "MEAN_ANOMALY": 342.4699,
        "EPHEMERIS_TYPE": 0,
        "CLASSIFICATION_TYPE": "U",
        "NORAD_CAT_ID": 43647,
        "ELEMENT_SET_NO": 999,
        "REV_AT_EPOCH": 4822,
        "BSTAR": 0,
        "MEAN_MOTION_DOT": -8.3e-7,
        "MEAN_MOTION_DDOT": 0
    },
    {
        "OBJECT_NAME": "BEIDOU-3 M15 (C34)",
        "OBJECT_ID": "2018-078B",
        "EPOCH": "2025-11-18T03:04:43.925952",
        "MEAN_MOTION": 1.86232306,
        "ECCENTRICITY": 0.0003283,
        "INCLINATION": 54.2802,
        "RA_OF_ASC_NODE": 307.3825,
        "ARG_OF_PERICENTER": 15.7604,
        "MEAN_ANOMALY": 344.2421,
        "EPHEMERIS_TYPE": 0,
        "CLASSIFICATION_TYPE": "U",
        "NORAD_CAT_ID": 43648,
        "ELEMENT_SET_NO": 999,
        "REV_AT_EPOCH": 4824,
        "BSTAR": 0,
        "MEAN_MOTION_DOT": -8.3e-7,
        "MEAN_MOTION_DDOT": 0
    },
    {
        "OBJECT_NAME": "BEIDOU-3 G1 (C59)",
        "OBJECT_ID": "2018-085A",
        "EPOCH": "2025-11-18T04:35:14.147808",
        "MEAN_MOTION": 1.00270252,
        "ECCENTRICITY": 0.0001986,
        "INCLINATION": 2.5444,
        "RA_OF_ASC_NODE": 103.7485,
        "ARG_OF_PERICENTER": 49.2528,
        "MEAN_ANOMALY": 113.4145,
        "EPHEMERIS_TYPE": 0,
        "CLASSIFICATION_TYPE": "U",
        "NORAD_CAT_ID": 43683,
        "ELEMENT_SET_NO": 999,
        "REV_AT_EPOCH": 2594,
        "BSTAR": 0,
        "MEAN_MOTION_DOT": -2.58e-6,
        "MEAN_MOTION_DDOT": 0
    },
    {
        "OBJECT_NAME": "BEIDOU-3 M17 (C36)",
        "OBJECT_ID": "2018-093A",
        "EPOCH": "2025-11-17T11:28:51.855744",
        "MEAN_MOTION": 1.86228495,
        "ECCENTRICITY": 0.00067554,
        "INCLINATION": 54.1724,
        "RA_OF_ASC_NODE": 189.4797,
        "ARG_OF_PERICENTER": 305.2379,
        "MEAN_ANOMALY": 232.9952,
        "EPHEMERIS_TYPE": 0,
        "CLASSIFICATION_TYPE": "U",
        "NORAD_CAT_ID": 43706,
        "ELEMENT_SET_NO": 999,
        "REV_AT_EPOCH": 4759,
        "BSTAR": 0,
        "MEAN_MOTION_DOT": 7.1e-7,
        "MEAN_MOTION_DDOT": 0
    },
    {
        "OBJECT_NAME": "BEIDOU-3 M18 (C37)",
        "OBJECT_ID": "2018-093B",
        "EPOCH": "2025-11-17T01:46:21.915264",
        "MEAN_MOTION": 1.86226769,
        "ECCENTRICITY": 0.00065939,
        "INCLINATION": 54.1732,
        "RA_OF_ASC_NODE": 189.4853,
        "ARG_OF_PERICENTER": 347.5069,
        "MEAN_ANOMALY": 12.5747,
        "EPHEMERIS_TYPE": 0,
        "CLASSIFICATION_TYPE": "U",
        "NORAD_CAT_ID": 43707,
        "ELEMENT_SET_NO": 999,
        "REV_AT_EPOCH": 4758,
        "BSTAR": 0,
        "MEAN_MOTION_DOT": 6.7e-7,
        "MEAN_MOTION_DDOT": 0
    },
    {
        "OBJECT_NAME": "BEIDOU-3 IGSO-1 (C38)",
        "OBJECT_ID": "2019-023A",
        "EPOCH": "2025-11-16T17:57:22.499712",
        "MEAN_MOTION": 1.00252858,
        "ECCENTRICITY": 0.0026899,
        "INCLINATION": 58.397,
        "RA_OF_ASC_NODE": 39.8456,
        "ARG_OF_PERICENTER": 221.1206,
        "MEAN_ANOMALY": 180.0641,
        "EPHEMERIS_TYPE": 0,
        "CLASSIFICATION_TYPE": "U",
        "NORAD_CAT_ID": 44204,
        "ELEMENT_SET_NO": 999,
        "REV_AT_EPOCH": 508,
        "BSTAR": 0,
        "MEAN_MOTION_DOT": -2.36e-6,
        "MEAN_MOTION_DDOT": 0
    },
    {
        "OBJECT_NAME": "BEIDOU-2 G8 (C01)",
        "OBJECT_ID": "2019-027A",
        "EPOCH": "2025-11-17T23:28:12.701856",
        "MEAN_MOTION": 1.00270064,
        "ECCENTRICITY": 0.0007976,
        "INCLINATION": 1.5976,
        "RA_OF_ASC_NODE": 74.6388,
        "ARG_OF_PERICENTER": 256.6396,
        "MEAN_ANOMALY": 222.5974,
        "EPHEMERIS_TYPE": 0,
        "CLASSIFICATION_TYPE": "U",
        "NORAD_CAT_ID": 44231,
        "ELEMENT_SET_NO": 999,
        "REV_AT_EPOCH": 2396,
        "BSTAR": 0,
        "MEAN_MOTION_DOT": -2.3e-6,
        "MEAN_MOTION_DDOT": 0
    }
]